STARLINK-34979          
1 65254U 25179V   26014.72072773  .00002802  00000+0  19830-3 0  9999
2 65254  97.6062  59.7029 0000838  95.7225 264.4097 15.05651140 23695
STARLINK-34987          
1 65255U 25179W   26014.57673817  .00001345  00000+0  97434-4 0  9997
2 65255  97.6052  59.5866 0001475  95.0138 265.1257 15.05648847 23669
STARLINK-34971          
1 65256U 25179X   26014.55181919  .00002467  00000+0  17513-3 0  9998
2 65256  97.6035  59.6227 0000960  80.1013 280.0322 15.05651014 23409
STARLINK-34966          
1 65257U 25179Y   26014.54628236  .00002783  00000+0  19700-3 0  9997
2 65257  97.6038  59.6302 0000857  87.3082 272.8243 15.05655074 23789
STARLINK-34980          
1 65258U 25179Z   26014.56566383  .00001499  00000+0  10806-3 0  9995
2 65258  97.6040  59.6026 0001992  84.5254 275.6200 15.05649643 23674
2025-180A               
1 65259U 25180A   26009.14013289  .00014288  00000+0  71526-3 0  9994
2 65259  97.5005 138.6157 0013914 149.2286 210.9766 15.17420622 21628
2025-180B               
1 65260U 25180B   26013.14715266  .00003373  00000+0  19037-3 0  9997
2 65260  97.5058 142.2262 0015537 134.5772 225.6731 15.13726399 22190
2025-180C               
1 65261U 25180C   26014.93191300  .00003102  00000+0  17546-3 0  9996
2 65261  97.5033 143.9441 0015426 129.0972 231.1634 15.13706171 22469
2025-180D               
1 65262U 25180D   26013.14693885  .00004125  00000+0  23216-3 0  9991
2 65262  97.5054 142.2156 0015541 133.4484 226.8043 15.13699139 22193
2025-180E               
1 65263U 25180E   26014.97451438  .00002301  00000+0  12205-3 0  9990
2 65263  97.4773 144.2149 0001722  88.7460 271.3970 15.16352145 22502
COSMOS 2591             
1 65267U 25182A   26014.96417982  .00062358  32974-5  16246-3 0  9999
2 65267  96.5905 309.3049 0011678  56.3545 303.8845 15.94983690 23258
COSMOS 2592             
1 65268U 25182B   26014.97978898  .00063135  33359-5  16419-3 0  9993
2 65268  96.5925 309.2826 0011466  55.6217 304.6143 15.95019343 23252
COSMOS 2593             
1 65269U 25182C   26014.99554385  .00062147  32924-5  16120-3 0  9995
2 65269  96.5948 309.2667 0011268  53.5410 306.6904 15.95075300 23255
COSMOS 2594             
1 65270U 25182D   26014.94829932  .00062155  32926-5  16050-3 0  9998
2 65270  96.5918 309.1875 0011656  54.2553 305.9808 15.95150281 23269
STARLINK-34922          
1 65273U 25184A   26014.73099094  .00002799  00000+0  19811-3 0  9996
2 65273  97.6043  69.5000 0001063 101.0226 259.1120 15.05650537 23187
STARLINK-34904          
1 65274U 25184B   26014.55929894  .00002251  00000+0  16018-3 0  9996
2 65274  97.6054  69.2680 0001441  94.0252 266.1140 15.05652873 23153
STARLINK-34954          
1 65275U 25184C   26014.91099312  .00007149  00000+0  49910-3 0  9998
2 65275  97.6034  69.5693 0001352  92.9381 267.2000 15.05654332 23205
STARLINK-34968          
1 65276U 25184D   26014.61191655  .00001890  00000+0  13517-3 0  9990
2 65276  97.6061  69.3527 0000921  99.0853 261.0478 15.05650736 23163
STARLINK-34935          
1 65277U 25184E   26014.72268730 -.00001457  00000+0 -96832-4 0  9995
2 65277  97.6034  69.5114 0001544  92.0897 268.0506 15.05638835 23188
STARLINK-35000          
1 65278U 25184F   26014.70052940  .00004654  00000+0  32654-3 0  9999
2 65278  97.6040  69.3870 0000960  98.4235 261.7101 15.05646088 23179
STARLINK-35023          
1 65279U 25184G   26014.62020492  .00004505  00000+0  31618-3 0  9992
2 65279  97.6090  69.3434 0000447   6.5106 353.6126 15.05659253 23163
STARLINK-35001          
1 65280U 25184H   26014.60359797 -.00000652  00000+0 -40995-4 0  9995
2 65280  97.6043  69.3649 0001447  89.9733 270.1659 15.05654784 23161
STARLINK-35010          
1 65281U 25184J   26014.72823805  .00003128  00000+0  22097-3 0  9996
2 65281  97.6041  69.5042 0002017  99.0285 261.1170 15.05641476 23181
STARLINK-35021          
1 65282U 25184K   26014.71714813  .00002049  00000+0  14616-3 0  9993
2 65282  97.6035  69.5199 0000884  86.8334 273.2994 15.05655177 23133
STARLINK-35015          
1 65283U 25184L   26014.57314325  .00002568  00000+0  18208-3 0  9999
2 65283  97.6036  69.2491 0000538  95.3390 264.7898 15.05651706 23154
STARLINK-35006          
1 65284U 25184M   26014.94143877  .00000375  00000+0  30214-4 0  9999
2 65284  97.6048  69.6840 0000445 284.6157  75.5020 15.05644786 23213
STARLINK-34995          
1 65285U 25184N   26014.55653098  .00002937  00000+0  20769-3 0  9997
2 65285  97.6056  69.2715 0000612  91.1727 268.9570 15.05651371 23159
STARLINK-35048          
1 65286U 25184P   26014.61468494  .00001924  00000+0  13752-3 0  9998
2 65286  97.6060  69.3490 0001281  89.4699 270.6675 15.05649660 23117
STARLINK-35007          
1 65287U 25184Q   26014.43191849  .00005480  00000+0  38363-3 0  9992
2 65287  97.6047  69.1292 0000374 105.3440 254.7828 15.05654900 23076
STARLINK-35018          
1 65288U 25184R   26014.73376034  .00003022  00000+0  21358-3 0  9993
2 65288  97.6046  69.4991 0001229  98.5658 261.5708 15.05650754 23187
STARLINK-34845          
1 65289U 25184S   26014.72545400  .00003453  00000+0  24338-3 0  9997
2 65289  97.6038  69.5081 0000848 135.5450 224.5845 15.05651609 23189
STARLINK-34984          
1 65290U 25184T   26014.60637990  .00002269  00000+0  16144-3 0  9992
2 65290  97.6054  69.3600 0001059 101.2508 258.8838 15.05650759 23168
STARLINK-35002          
1 65291U 25184U   26014.90820476  .00001495  00000+0  10780-3 0  9999
2 65291  97.6037  69.5734 0000551 111.5021 248.6265 15.05655779 23203
STARLINK-35017          
1 65292U 25184V   26014.71992778  .00002614  00000+0  18532-3 0  9991
2 65292  97.6035  69.5155 0001531  91.6350 268.5052 15.05641411 23136
STARLINK-34951          
1 65293U 25184W   26014.61745214  .00001932  00000+0  13810-3 0  9998
2 65293  97.6062  69.3449 0000857 103.3590 256.7732 15.05649852 23162
STARLINK-34613          
1 65294U 25184X   26014.62853679  .00004404  00000+0  30932-3 0  9996
2 65294  97.6047  69.3299 0001017 106.5785 253.5554 15.05638553 23162
STARLINK-34834          
1 65295U 25184Y   26014.71436883  .00003006  00000+0  21246-3 0  9996
2 65295  97.6034  69.3716 0001201  92.5415 267.5950 15.05649151 23174
STARLINK-34872          
1 65296U 25184Z   26014.57036046  .00008700  00000+0  60596-3 0  9995
2 65296  97.6028  69.2525 0000898 115.9235 244.2084 15.05678290 23150
DRESDEN                 
1 65297U 25185A   26014.50907090  .00002625  00000+0  38990-3 0  9999
2 65297  97.9675  99.6494 0016219 214.5383 145.4774 14.75782620 21131
FOURIER                 
1 65298U 25185B   26014.23663248  .00012281  00000+0  17931-2 0  9994
2 65298  97.9676  99.4042 0016432 213.0820 146.9363 14.75797281 21103
STARK                   
1 65299U 25185C   26014.83756016  .00001126  00000+0  16966-3 0  9991
2 65299  97.9619  99.9716 0014973 212.0574 147.9727 14.76253845 21184
BASIL                   
1 65301U 25185E   26014.77781608  .00002431  00000+0  36154-3 0  9994
2 65301  97.9683  99.9400 0016352 210.1902 149.8367 14.75794572 21183
DOJO                    
1 65302U 25185F   26014.77655042  .00001967  00000+0  29390-3 0  9994
2 65302  97.9690  99.9411 0016544 209.2525 150.7759 14.75791711 21185
DRAGON CRS-33           
1 65304U 25186A   26014.88606923  .00006740  00000+0  12902-3 0  9998
2 65304  51.6333 338.3791 0007761  18.9639 341.1637 15.49293899   118
HULIANWANG DIGUI-73     
1 65305U 25187A   26014.99718974 -.00000092  00000+0  68603-4 0  9997
2 65305  50.0064  35.2895 0000471 322.8894  37.1946 13.29337974 19329
HULIANWANG DIGUI-74     
1 65306U 25187B   26014.98047310 -.00000099  00000+0  53127-4 0  9998
2 65306  50.0107  35.2532 0000471 324.2590  35.8251 13.29338477 19328
HULIANWANG DIGUI-75     
1 65307U 25187C   26014.96379512 -.00000101  00000+0  50268-4 0  9996
2 65307  50.0099  35.1576 0000477 322.0150  38.0688 13.29337592 19326
HULIANWANG DIGUI-76     
1 65308U 25187D   26014.94719463 -.00000098  00000+0  55356-4 0  9996
2 65308  50.0023  35.6380 0000494 316.9595  43.1238 13.29334676 19313
HULIANWANG DIGUI-77     
1 65309U 25187E   26014.93875943 -.00000098  00000+0  55771-4 0  9993
2 65309  50.0057  35.6355 0000519 321.1225  38.9610 13.29336707 19312
HULIANWANG DIGUI-78     
1 65310U 25187F   26014.97217080 -.00000101  00000+0  49853-4 0  9990
2 65310  50.0123  35.2301 0000460 323.0864  36.9977 13.29337243 19321
HULIANWANG DIGUI-79     
1 65311U 25187G   26014.95538254 -.00000097  00000+0  57262-4 0  9995
2 65311  50.0053  35.7154 0000484 320.0380  40.0456 13.29338708 19315
HULIANWANG DIGUI-80     
1 65312U 25187H   26015.00555902 -.00000093  00000+0  65843-4 0  9992
2 65312  50.0043  35.3061 0000504 319.8774  40.2061 13.29336833 19326
HULIANWANG DIGUI-81     
1 65313U 25187J   26014.98888327 -.00000104  00000+0  43278-4 0  9990
2 65313  50.0082  35.2686 0000486 320.4253  39.6583 13.29336928 19338
PELICAN-300A            
1 65315U 25188A   26014.18151344  .00001970  00000+0  50294-4 0  9994
2 65315  97.2407  92.3298 0009383 215.7909 144.2710 15.40672818 21600
PELICAN-300B            
1 65316U 25188B   26014.71675906  .00002161  00000+0  55011-4 0  9994
2 65316  97.2368  92.9061 0006170 207.5384 152.5537 15.40664425 21680
NAOS                    
1 65317U 25188C   26014.90601937  .00007195  00000+0  18909-3 0  9995
2 65317  97.2305  92.7000 0000862 333.3220  26.7982 15.38896032 21697
CAPELLA-16 (ACADIA-6)   
1 65318U 25188D   26014.14943899  .00004542  00000+0  44646-3 0  9998
2 65318  97.7508  91.6057 0004642  52.5467 307.6174 14.92615939 20924
FFLY03                  
1 65319U 25188E   26014.96588485  .00001237  00000+0  12501-3 0  9998
2 65319  97.7487  92.6543 0006143 256.3453 103.7083 14.92802998 21051
FFLY01                  
1 65320U 25188F   26014.93818510  .00001061  00000+0  10772-3 0  9995
2 65320  97.7543  92.6397 0010798 331.5903  28.4727 14.92883084 21042
